ONEWEB-0098             
1 45442U 20020U   25321.54776561 -.00000483  00000+0 -13985-2 0  9991
2 45442  87.8871  63.2063 0001690 100.6727 259.4591 13.11418025274902
ONEWEB-0055             
1 45443U 20020V   25321.53080972 -.00000082  00000+0 -26683-3 0  9990
2 45443  87.8867  63.2099 0001729 102.5026 257.6296 13.11413396274877
ONEWEB-0093             
1 45444U 20020W   25321.73527003  .00000592  00000+0  16339-2 0  9994
2 45444  87.8869  63.1558 0001587 118.5071 241.6217 13.11416583274965
ONEWEB-0029             
1 45445U 20020X   25321.75123287  .00000240  00000+0  64042-3 0  9998
2 45445  87.8870  63.1652 0001674 107.8885 252.2426 13.11416248274940
ONEWEB-0068             
1 45446U 20020Y   25322.19277595  .00000544  00000+0  14981-2 0  9993
2 45446  87.8874  63.0665 0001693 107.2471 252.8842 13.11415758274947
ONEWEB-0046             
1 45447U 20020Z   25321.34516665  .00000461  00000+0  12652-2 0  9995
2 45447  87.8870  63.2430 0001458 109.2291 250.8995 13.11417153274844
ONEWEB-0063             
1 45448U 20020AA  25321.75547031  .00000071  00000+0  16524-3 0  9992
2 45448  87.8870  63.1593 0001408 102.8038 257.3247 13.11414180274981
ONEWEB-0019             
1 45449U 20020AB  25322.18696277  .00000420  00000+0  11505-2 0  9999
2 45449  87.8859  63.0858 0001728 102.7552 257.3770 13.11420919274884
